{
"type": "FeatureCollection",
"name": "places",
"crs": { "type": "name", "properties": { "name": "urn:ogc:def:crs:OGC:1.3:CRS84" } },
"xy_coordinate_resolution": 0.001,
"features": [
{ "type": "Feature", "properties": { "name": "Los Angeles", "caps": 1, "minzoom": 3 }, "geometry": { "type": "Point", "coordinates": [ -118.232, 34.049 ] } },
{ "type": "Feature", "properties": { "name": "Washington,  D.C.", "caps": 1, "minzoom": 3 }, "geometry": { "type": "Point", "coordinates": [ -77.011, 38.901 ] } },
{ "type": "Feature", "properties": { "name": "New York", "caps": 1, "minzoom": 3 }, "geometry": { "type": "Point", "coordinates": [ -73.996, 40.722 ] } },
{ "type": "Feature", "properties": { "name": "London", "caps": 1, "minzoom": 3 }, "geometry": { "type": "Point", "coordinates": [ -0.119, 51.502 ] } },
{ "type": "Feature", "properties": { "name": "Istanbul", "caps": 1, "minzoom": 3 }, "geometry": { "type": "Point", "coordinates": [ 28.974, 41.018 ] } },
{ "type": "Feature", "properties": { "name": "Riyadh", "caps": 1, "minzoom": 3 }, "geometry": { "type": "Point", "coordinates": [ 46.72, 24.634 ] } },
{ "type": "Feature", "properties": { "name": "Cape Town", "caps": 1, "minzoom": 3 }, "geometry": { "type": "Point", "coordinates": [ 18.433, -33.918 ] } },
{ "type": "Feature", "properties": { "name": "Moscow", "caps": 1, "minzoom": 3 }, "geometry": { "type": "Point", "coordinates": [ 37.614, 55.754 ] } },
{ "type": "Feature", "properties": { "name": "Mexico City", "caps": 1, "minzoom": 3 }, "geometry": { "type": "Point", "coordinates": [ -99.133, 19.444 ] } },
{ "type": "Feature", "properties": { "name": "Lagos", "caps": 1, "minzoom": 3 }, "geometry": { "type": "Point", "coordinates": [ 3.39, 6.445 ] } },
{ "type": "Feature", "properties": { "name": "Rome", "caps": 1, "minzoom": 3 }, "geometry": { "type": "Point", "coordinates": [ 12.481, 41.898 ] } },
{ "type": "Feature", "properties": { "name": "Beijing", "caps": 1, "minzoom": 3 }, "geometry": { "type": "Point", "coordinates": [ 116.394, 39.902 ] } },
{ "type": "Feature", "properties": { "name": "Nairobi", "caps": 1, "minzoom": 3 }, "geometry": { "type": "Point", "coordinates": [ 36.815, -1.281 ] } },
{ "type": "Feature", "properties": { "name": "Jakarta", "caps": 1, "minzoom": 3 }, "geometry": { "type": "Point", "coordinates": [ 106.827, -6.172 ] } },
{ "type": "Feature", "properties": { "name": "Bogota", "caps": 1, "minzoom": 3 }, "geometry": { "type": "Point", "coordinates": [ -74.085, 4.598 ] } },
{ "type": "Feature", "properties": { "name": "Cairo", "caps": 1, "minzoom": 3 }, "geometry": { "type": "Point", "coordinates": [ 31.248, 30.052 ] } },
{ "type": "Feature", "properties": { "name": "Shanghai", "caps": 1, "minzoom": 3 }, "geometry": { "type": "Point", "coordinates": [ 121.435, 31.218 ] } },
{ "type": "Feature", "properties": { "name": "Tokyo", "caps": 1, "minzoom": 3 }, "geometry": { "type": "Point", "coordinates": [ 139.749, 35.687 ] } },
{ "type": "Feature", "properties": { "name": "Mumbai", "caps": 1, "minzoom": 3 }, "geometry": { "type": "Point", "coordinates": [ 72.876, 19.068 ] } },
{ "type": "Feature", "properties": { "name": "Paris", "caps": 1, "minzoom": 3 }, "geometry": { "type": "Point", "coordinates": [ 2.353, 48.858 ] } },
{ "type": "Feature", "properties": { "name": "Santiago", "caps": 1, "minzoom": 3 }, "geometry": { "type": "Point", "coordinates": [ -70.651, -33.44 ] } },
{ "type": "Feature", "properties": { "name": "Kolkata", "caps": 1, "minzoom": 3 }, "geometry": { "type": "Point", "coordinates": [ 88.369, 22.57 ] } },
{ "type": "Feature", "properties": { "name": "Rio de Janeiro", "caps": 1, "minzoom": 3 }, "geometry": { "type": "Point", "coordinates": [ -43.212, -22.907 ] } },
{ "type": "Feature", "properties": { "name": "São Paulo", "caps": 1, "minzoom": 3 }, "geometry": { "type": "Point", "coordinates": [ -46.627, -23.557 ] } },
{ "type": "Feature", "properties": { "name": "Sydney", "caps": 1, "minzoom": 3 }, "geometry": { "type": "Point", "coordinates": [ 151.213, -33.871 ] } },
{ "type": "Feature", "properties": { "name": "Singapore", "caps": 1, "minzoom": 3 }, "geometry": { "type": "Point", "coordinates": [ 103.854, 1.295 ] } },
{ "type": "Feature", "properties": { "name": "Hong Kong", "caps": 1, "minzoom": 3 }, "geometry": { "type": "Point", "coordinates": [ 114.183, 22.307 ] } },
{ "type": "Feature", "properties": { "name": "Shenzhen", "caps": 0, "minzoom": 4 }, "geometry": { "type": "Point", "coordinates": [ 114.061, 22.548 ] } },
{ "type": "Feature", "properties": { "name": "Zibo", "caps": 0, "minzoom": 4 }, "geometry": { "type": "Point", "coordinates": [ 117.996, 36.821 ] } },
{ "type": "Feature", "properties": { "name": "Seattle", "caps": 0, "minzoom": 4 }, "geometry": { "type": "Point", "coordinates": [ -122.315, 47.6 ] } },
{ "type": "Feature", "properties": { "name": "Phoenix", "caps": 0, "minzoom": 4 }, "geometry": { "type": "Point", "coordinates": [ -112.067, 33.448 ] } },
{ "type": "Feature", "properties": { "name": "Dallas", "caps": 0, "minzoom": 4 }, "geometry": { "type": "Point", "coordinates": [ -96.795, 32.772 ] } },
{ "type": "Feature", "properties": { "name": "Boston", "caps": 0, "minzoom": 4 }, "geometry": { "type": "Point", "coordinates": [ -71.072, 42.332 ] } },
{ "type": "Feature", "properties": { "name": "Philadelphia", "caps": 0, "minzoom": 4 }, "geometry": { "type": "Point", "coordinates": [ -75.18, 39.946 ] } },
{ "type": "Feature", "properties": { "name": "Detroit", "caps": 0, "minzoom": 4 }, "geometry": { "type": "Point", "coordinates": [ -83.051, 42.334 ] } },
{ "type": "Feature", "properties": { "name": "Hanoi", "caps": 0, "minzoom": 4 }, "geometry": { "type": "Point", "coordinates": [ 105.848, 21.035 ] } },
{ "type": "Feature", "properties": { "name": "Ho Chi Minh City", "caps": 0, "minzoom": 4 }, "geometry": { "type": "Point", "coordinates": [ 106.703, 10.762 ] } },
{ "type": "Feature", "properties": { "name": "Ankara", "caps": 0, "minzoom": 4 }, "geometry": { "type": "Point", "coordinates": [ 32.862, 39.929 ] } },
{ "type": "Feature", "properties": { "name": "Barcelona", "caps": 0, "minzoom": 4 }, "geometry": { "type": "Point", "coordinates": [ 2.181, 41.385 ] } },
{ "type": "Feature", "properties": { "name": "Khartoum", "caps": 0, "minzoom": 4 }, "geometry": { "type": "Point", "coordinates": [ 32.532, 15.59 ] } },
{ "type": "Feature", "properties": { "name": "Jeddah", "caps": 0, "minzoom": 4 }, "geometry": { "type": "Point", "coordinates": [ 39.217, 21.519 ] } },
{ "type": "Feature", "properties": { "name": "Lahore", "caps": 0, "minzoom": 4 }, "geometry": { "type": "Point", "coordinates": [ 74.348, 31.562 ] } },
{ "type": "Feature", "properties": { "name": "Karachi", "caps": 0, "minzoom": 4 }, "geometry": { "type": "Point", "coordinates": [ 66.988, 24.872 ] } },
{ "type": "Feature", "properties": { "name": "St.  Petersburg", "caps": 0, "minzoom": 4 }, "geometry": { "type": "Point", "coordinates": [ 30.314, 59.941 ] } },
{ "type": "Feature", "properties": { "name": "Guadalajara", "caps": 0, "minzoom": 4 }, "geometry": { "type": "Point", "coordinates": [ -103.332, 20.672 ] } },
{ "type": "Feature", "properties": { "name": "Kano", "caps": 0, "minzoom": 4 }, "geometry": { "type": "Point", "coordinates": [ 8.518, 12.002 ] } },
{ "type": "Feature", "properties": { "name": "Pyongyang", "caps": 0, "minzoom": 4 }, "geometry": { "type": "Point", "coordinates": [ 125.753, 39.021 ] } },
{ "type": "Feature", "properties": { "name": "Guiyang", "caps": 0, "minzoom": 4 }, "geometry": { "type": "Point", "coordinates": [ 106.718, 26.582 ] } },
{ "type": "Feature", "properties": { "name": "Chongqing", "caps": 0, "minzoom": 4 }, "geometry": { "type": "Point", "coordinates": [ 106.593, 29.567 ] } },
{ "type": "Feature", "properties": { "name": "Guangzhou", "caps": 0, "minzoom": 4 }, "geometry": { "type": "Point", "coordinates": [ 113.262, 23.125 ] } },
{ "type": "Feature", "properties": { "name": "Dongguan", "caps": 0, "minzoom": 4 }, "geometry": { "type": "Point", "coordinates": [ 113.75, 23.022 ] } },
{ "type": "Feature", "properties": { "name": "Medellín", "caps": 0, "minzoom": 4 }, "geometry": { "type": "Point", "coordinates": [ -75.577, 6.277 ] } },
{ "type": "Feature", "properties": { "name": "Alexandria", "caps": 0, "minzoom": 4 }, "geometry": { "type": "Point", "coordinates": [ 29.948, 31.202 ] } },
{ "type": "Feature", "properties": { "name": "Xian", "caps": 0, "minzoom": 4 }, "geometry": { "type": "Point", "coordinates": [ 108.893, 34.277 ] } },
{ "type": "Feature", "properties": { "name": "Wuhan", "caps": 0, "minzoom": 4 }, "geometry": { "type": "Point", "coordinates": [ 114.268, 30.582 ] } },
{ "type": "Feature", "properties": { "name": "Shenyeng", "caps": 0, "minzoom": 4 }, "geometry": { "type": "Point", "coordinates": [ 123.448, 41.807 ] } },
{ "type": "Feature", "properties": { "name": "Tianjin", "caps": 0, "minzoom": 4 }, "geometry": { "type": "Point", "coordinates": [ 117.197, 39.083 ] } },
{ "type": "Feature", "properties": { "name": "Nanjing", "caps": 0, "minzoom": 4 }, "geometry": { "type": "Point", "coordinates": [ 118.778, 32.052 ] } },
{ "type": "Feature", "properties": { "name": "Hangzhou", "caps": 0, "minzoom": 4 }, "geometry": { "type": "Point", "coordinates": [ 120.168, 30.252 ] } },
{ "type": "Feature", "properties": { "name": "Changchun", "caps": 0, "minzoom": 4 }, "geometry": { "type": "Point", "coordinates": [ 125.338, 43.867 ] } },
{ "type": "Feature", "properties": { "name": "Harbin", "caps": 0, "minzoom": 4 }, "geometry": { "type": "Point", "coordinates": [ 126.648, 45.752 ] } },
{ "type": "Feature", "properties": { "name": "Delhi", "caps": 0, "minzoom": 4 }, "geometry": { "type": "Point", "coordinates": [ 77.228, 28.672 ] } },
{ "type": "Feature", "properties": { "name": "Hyderabad", "caps": 0, "minzoom": 4 }, "geometry": { "type": "Point", "coordinates": [ 78.478, 17.402 ] } },
{ "type": "Feature", "properties": { "name": "Pune", "caps": 0, "minzoom": 4 }, "geometry": { "type": "Point", "coordinates": [ 73.852, 18.516 ] } },
{ "type": "Feature", "properties": { "name": "Tel Aviv", "caps": 0, "minzoom": 4 }, "geometry": { "type": "Point", "coordinates": [ 34.768, 32.082 ] } },
{ "type": "Feature", "properties": { "name": "Kanpur", "caps": 0, "minzoom": 4 }, "geometry": { "type": "Point", "coordinates": [ 80.318, 26.462 ] } },
{ "type": "Feature", "properties": { "name": "Chennai", "caps": 0, "minzoom": 4 }, "geometry": { "type": "Point", "coordinates": [ 80.278, 13.092 ] } },
{ "type": "Feature", "properties": { "name": "Ahmedabad", "caps": 0, "minzoom": 4 }, "geometry": { "type": "Point", "coordinates": [ 72.578, 23.032 ] } },
{ "type": "Feature", "properties": { "name": "Surat", "caps": 0, "minzoom": 4 }, "geometry": { "type": "Point", "coordinates": [ 72.838, 21.202 ] } },
{ "type": "Feature", "properties": { "name": "Abidjan", "caps": 0, "minzoom": 4 }, "geometry": { "type": "Point", "coordinates": [ -4.02, 5.323 ] } },
{ "type": "Feature", "properties": { "name": "Brasília", "caps": 0, "minzoom": 4 }, "geometry": { "type": "Point", "coordinates": [ -47.918, -15.781 ] } },
{ "type": "Feature", "properties": { "name": "Porto Alegre", "caps": 0, "minzoom": 4 }, "geometry": { "type": "Point", "coordinates": [ -51.202, -30.048 ] } },
{ "type": "Feature", "properties": { "name": "Curitiba", "caps": 0, "minzoom": 4 }, "geometry": { "type": "Point", "coordinates": [ -49.322, -25.418 ] } },
{ "type": "Feature", "properties": { "name": "Fortaleza", "caps": 0, "minzoom": 4 }, "geometry": { "type": "Point", "coordinates": [ -38.582, -3.748 ] } },
{ "type": "Feature", "properties": { "name": "Salvador", "caps": 0, "minzoom": 4 }, "geometry": { "type": "Point", "coordinates": [ -38.482, -12.968 ] } },
{ "type": "Feature", "properties": { "name": "Montréal", "caps": 0, "minzoom": 4 }, "geometry": { "type": "Point", "coordinates": [ -73.585, 45.502 ] } },
{ "type": "Feature", "properties": { "name": "Recife", "caps": 0, "minzoom": 4 }, "geometry": { "type": "Point", "coordinates": [ -34.909, -8.061 ] } },
{ "type": "Feature", "properties": { "name": "Dhaka", "caps": 0, "minzoom": 4 }, "geometry": { "type": "Point", "coordinates": [ 90.407, 23.725 ] } },
{ "type": "Feature", "properties": { "name": "Luanda", "caps": 0, "minzoom": 4 }, "geometry": { "type": "Point", "coordinates": [ 13.232, -8.836 ] } },
{ "type": "Feature", "properties": { "name": "Algiers", "caps": 0, "minzoom": 4 }, "geometry": { "type": "Point", "coordinates": [ 3.049, 36.765 ] } },
{ "type": "Feature", "properties": { "name": "Chattogram", "caps": 0, "minzoom": 4 }, "geometry": { "type": "Point", "coordinates": [ 91.798, 22.332 ] } },
{ "type": "Feature", "properties": { "name": "Yangon", "caps": 0, "minzoom": 4 }, "geometry": { "type": "Point", "coordinates": [ 96.165, 16.785 ] } },
{ "type": "Feature", "properties": { "name": "San Francisco", "caps": 1, "minzoom": 4 }, "geometry": { "type": "Point", "coordinates": [ -122.4, 37.784 ] } },
{ "type": "Feature", "properties": { "name": "Denver", "caps": 1, "minzoom": 4 }, "geometry": { "type": "Point", "coordinates": [ -104.986, 39.741 ] } },
{ "type": "Feature", "properties": { "name": "Houston", "caps": 1, "minzoom": 4 }, "geometry": { "type": "Point", "coordinates": [ -95.348, 29.741 ] } },
{ "type": "Feature", "properties": { "name": "Miami", "caps": 1, "minzoom": 4 }, "geometry": { "type": "Point", "coordinates": [ -80.226, 25.79 ] } },
{ "type": "Feature", "properties": { "name": "Atlanta", "caps": 1, "minzoom": 4 }, "geometry": { "type": "Point", "coordinates": [ -84.368, 33.739 ] } },
{ "type": "Feature", "properties": { "name": "Chicago", "caps": 1, "minzoom": 4 }, "geometry": { "type": "Point", "coordinates": [ -87.635, 41.848 ] } },
{ "type": "Feature", "properties": { "name": "Caracas", "caps": 1, "minzoom": 4 }, "geometry": { "type": "Point", "coordinates": [ -66.919, 10.503 ] } },
{ "type": "Feature", "properties": { "name": "Kyiv", "caps": 1, "minzoom": 4 }, "geometry": { "type": "Point", "coordinates": [ 30.515, 50.435 ] } },
{ "type": "Feature", "properties": { "name": "Dubai", "caps": 1, "minzoom": 4 }, "geometry": { "type": "Point", "coordinates": [ 55.287, 25.215 ] } },
{ "type": "Feature", "properties": { "name": "Tashkent", "caps": 1, "minzoom": 4 }, "geometry": { "type": "Point", "coordinates": [ 69.269, 41.304 ] } },
{ "type": "Feature", "properties": { "name": "Madrid", "caps": 1, "minzoom": 4 }, "geometry": { "type": "Point", "coordinates": [ -3.685, 40.402 ] } },
{ "type": "Feature", "properties": { "name": "Geneva", "caps": 1, "minzoom": 4 }, "geometry": { "type": "Point", "coordinates": [ 6.14, 46.21 ] } },
{ "type": "Feature", "properties": { "name": "Stockholm", "caps": 1, "minzoom": 4 }, "geometry": { "type": "Point", "coordinates": [ 18.066, 59.324 ] } },
{ "type": "Feature", "properties": { "name": "Bangkok", "caps": 1, "minzoom": 4 }, "geometry": { "type": "Point", "coordinates": [ 100.515, 13.752 ] } },
{ "type": "Feature", "properties": { "name": "Lima", "caps": 1, "minzoom": 4 }, "geometry": { "type": "Point", "coordinates": [ -77.052, -12.046 ] } },
{ "type": "Feature", "properties": { "name": "Dakar", "caps": 1, "minzoom": 4 }, "geometry": { "type": "Point", "coordinates": [ -17.475, 14.718 ] } },
{ "type": "Feature", "properties": { "name": "Johannesburg", "caps": 1, "minzoom": 4 }, "geometry": { "type": "Point", "coordinates": [ 28.028, -26.168 ] } },
{ "type": "Feature", "properties": { "name": "Amsterdam", "caps": 1, "minzoom": 4 }, "geometry": { "type": "Point", "coordinates": [ 4.915, 52.352 ] } },
{ "type": "Feature", "properties": { "name": "Casablanca", "caps": 1, "minzoom": 4 }, "geometry": { "type": "Point", "coordinates": [ -7.618, 33.602 ] } },
{ "type": "Feature", "properties": { "name": "Seoul", "caps": 1, "minzoom": 4 }, "geometry": { "type": "Point", "coordinates": [ 126.998, 37.568 ] } },
{ "type": "Feature", "properties": { "name": "Manila", "caps": 1, "minzoom": 4 }, "geometry": { "type": "Point", "coordinates": [ 120.98, 14.606 ] } },
{ "type": "Feature", "properties": { "name": "Monterrey", "caps": 1, "minzoom": 4 }, "geometry": { "type": "Point", "coordinates": [ -100.332, 25.672 ] } },
{ "type": "Feature", "properties": { "name": "Berlin", "caps": 1, "minzoom": 4 }, "geometry": { "type": "Point", "coordinates": [ 13.4, 52.524 ] } },
{ "type": "Feature", "properties": { "name": "Ürümqi", "caps": 1, "minzoom": 4 }, "geometry": { "type": "Point", "coordinates": [ 87.573, 43.807 ] } },
{ "type": "Feature", "properties": { "name": "Chengdu", "caps": 1, "minzoom": 4 }, "geometry": { "type": "Point", "coordinates": [ 104.068, 30.672 ] } },
{ "type": "Feature", "properties": { "name": "Ōsaka", "caps": 1, "minzoom": 4 }, "geometry": { "type": "Point", "coordinates": [ 135.504, 34.691 ] } },
{ "type": "Feature", "properties": { "name": "Kinshasa", "caps": 1, "minzoom": 4 }, "geometry": { "type": "Point", "coordinates": [ 15.313, -4.328 ] } },
{ "type": "Feature", "properties": { "name": "New Delhi", "caps": 1, "minzoom": 4 }, "geometry": { "type": "Point", "coordinates": [ 77.2, 28.6 ] } },
{ "type": "Feature", "properties": { "name": "Bengaluru", "caps": 1, "minzoom": 4 }, "geometry": { "type": "Point", "coordinates": [ 77.558, 12.972 ] } },
{ "type": "Feature", "properties": { "name": "Athens", "caps": 1, "minzoom": 4 }, "geometry": { "type": "Point", "coordinates": [ 23.731, 37.985 ] } },
{ "type": "Feature", "properties": { "name": "Baghdad", "caps": 1, "minzoom": 4 }, "geometry": { "type": "Point", "coordinates": [ 44.392, 33.341 ] } },
{ "type": "Feature", "properties": { "name": "Addis Ababa", "caps": 1, "minzoom": 4 }, "geometry": { "type": "Point", "coordinates": [ 38.698, 9.035 ] } },
{ "type": "Feature", "properties": { "name": "Tehran", "caps": 1, "minzoom": 4 }, "geometry": { "type": "Point", "coordinates": [ 51.422, 35.674 ] } },
{ "type": "Feature", "properties": { "name": "Vancouver", "caps": 1, "minzoom": 4 }, "geometry": { "type": "Point", "coordinates": [ -123.124, 49.275 ] } },
{ "type": "Feature", "properties": { "name": "Toronto", "caps": 1, "minzoom": 4 }, "geometry": { "type": "Point", "coordinates": [ -79.389, 43.665 ] } },
{ "type": "Feature", "properties": { "name": "Buenos Aires", "caps": 1, "minzoom": 4 }, "geometry": { "type": "Point", "coordinates": [ -58.433, -34.611 ] } },
{ "type": "Feature", "properties": { "name": "Kabul", "caps": 1, "minzoom": 4 }, "geometry": { "type": "Point", "coordinates": [ 69.181, 34.519 ] } },
{ "type": "Feature", "properties": { "name": "Vienna", "caps": 1, "minzoom": 4 }, "geometry": { "type": "Point", "coordinates": [ 16.365, 48.202 ] } },
{ "type": "Feature", "properties": { "name": "Melbourne", "caps": 1, "minzoom": 4 }, "geometry": { "type": "Point", "coordinates": [ 144.973, -37.818 ] } },
{ "type": "Feature", "properties": { "name": "Taipei", "caps": 1, "minzoom": 4 }, "geometry": { "type": "Point", "coordinates": [ 121.568, 25.036 ] } },
{ "type": "Feature", "properties": { "name": "Auckland", "caps": 1, "minzoom": 4 }, "geometry": { "type": "Point", "coordinates": [ 174.763, -36.848 ] } },
{ "type": "Feature", "properties": { "name": "Minneapolis", "caps": 0, "minzoom": 5 }, "geometry": { "type": "Point", "coordinates": [ -93.254, 44.982 ] } },
{ "type": "Feature", "properties": { "name": "Honolulu", "caps": 0, "minzoom": 5 }, "geometry": { "type": "Point", "coordinates": [ -157.858, 21.303 ] } },
{ "type": "Feature", "properties": { "name": "San Diego", "caps": 0, "minzoom": 5 }, "geometry": { "type": "Point", "coordinates": [ -117.151, 32.719 ] } },
{ "type": "Feature", "properties": { "name": "St. Louis", "caps": 0, "minzoom": 5 }, "geometry": { "type": "Point", "coordinates": [ -90.242, 38.637 ] } },
{ "type": "Feature", "properties": { "name": "New Orleans", "caps": 0, "minzoom": 5 }, "geometry": { "type": "Point", "coordinates": [ -90.088, 29.969 ] } },
{ "type": "Feature", "properties": { "name": "Maracaibo", "caps": 0, "minzoom": 5 }, "geometry": { "type": "Point", "coordinates": [ -71.662, 10.732 ] } },
{ "type": "Feature", "properties": { "name": "Tampa", "caps": 0, "minzoom": 5 }, "geometry": { "type": "Point", "coordinates": [ -82.461, 27.949 ] } },
{ "type": "Feature", "properties": { "name": "Anchorage", "caps": 0, "minzoom": 5 }, "geometry": { "type": "Point", "coordinates": [ -149.887, 61.214 ] } },
{ "type": "Feature", "properties": { "name": "Budapest", "caps": 0, "minzoom": 5 }, "geometry": { "type": "Point", "coordinates": [ 19.081, 47.502 ] } },
{ "type": "Feature", "properties": { "name": "Sanaa", "caps": 0, "minzoom": 5 }, "geometry": { "type": "Point", "coordinates": [ 44.205, 15.357 ] } },
{ "type": "Feature", "properties": { "name": "Bucharest", "caps": 0, "minzoom": 5 }, "geometry": { "type": "Point", "coordinates": [ 26.098, 44.435 ] } },
{ "type": "Feature", "properties": { "name": "Aleppo", "caps": 0, "minzoom": 5 }, "geometry": { "type": "Point", "coordinates": [ 37.168, 36.232 ] } },
{ "type": "Feature", "properties": { "name": "Damascus", "caps": 0, "minzoom": 5 }, "geometry": { "type": "Point", "coordinates": [ 36.298, 33.502 ] } },
{ "type": "Feature", "properties": { "name": "Zürich", "caps": 0, "minzoom": 5 }, "geometry": { "type": "Point", "coordinates": [ 8.548, 47.382 ] } },
{ "type": "Feature", "properties": { "name": "Lisbon", "caps": 0, "minzoom": 5 }, "geometry": { "type": "Point", "coordinates": [ -9.147, 38.725 ] } },
{ "type": "Feature", "properties": { "name": "Makkah", "caps": 0, "minzoom": 5 }, "geometry": { "type": "Point", "coordinates": [ 39.818, 21.432 ] } },
{ "type": "Feature", "properties": { "name": "Oslo", "caps": 0, "minzoom": 5 }, "geometry": { "type": "Point", "coordinates": [ 10.748, 59.919 ] } },
{ "type": "Feature", "properties": { "name": "Durban", "caps": 0, "minzoom": 5 }, "geometry": { "type": "Point", "coordinates": [ 31.011, -29.861 ] } },
{ "type": "Feature", "properties": { "name": "Puebla", "caps": 0, "minzoom": 5 }, "geometry": { "type": "Point", "coordinates": [ -98.204, 19.033 ] } },
{ "type": "Feature", "properties": { "name": "Warsaw", "caps": 0, "minzoom": 5 }, "geometry": { "type": "Point", "coordinates": [ 21.005, 52.231 ] } },
{ "type": "Feature", "properties": { "name": "Dar es Salaam", "caps": 0, "minzoom": 5 }, "geometry": { "type": "Point", "coordinates": [ 39.266, -6.798 ] } },
{ "type": "Feature", "properties": { "name": "Medan", "caps": 0, "minzoom": 5 }, "geometry": { "type": "Point", "coordinates": [ 98.648, 3.582 ] } },
{ "type": "Feature", "properties": { "name": "Dublin", "caps": 0, "minzoom": 5 }, "geometry": { "type": "Point", "coordinates": [ -6.257, 53.347 ] } },
{ "type": "Feature", "properties": { "name": "Monrovia", "caps": 0, "minzoom": 5 }, "geometry": { "type": "Point", "coordinates": [ -10.8, 6.315 ] } },
{ "type": "Feature", "properties": { "name": "Naples", "caps": 0, "minzoom": 5 }, "geometry": { "type": "Point", "coordinates": [ 14.243, 40.842 ] } },
{ "type": "Feature", "properties": { "name": "Milan", "caps": 0, "minzoom": 5 }, "geometry": { "type": "Point", "coordinates": [ 9.203, 45.472 ] } },
{ "type": "Feature", "properties": { "name": "Kuala Lumpur", "caps": 0, "minzoom": 5 }, "geometry": { "type": "Point", "coordinates": [ 101.689, 3.14 ] } },
{ "type": "Feature", "properties": { "name": "Lanzhou", "caps": 0, "minzoom": 5 }, "geometry": { "type": "Point", "coordinates": [ 103.79, 36.058 ] } },
{ "type": "Feature", "properties": { "name": "Nanning", "caps": 0, "minzoom": 5 }, "geometry": { "type": "Point", "coordinates": [ 108.318, 22.822 ] } },
{ "type": "Feature", "properties": { "name": "Fuzhou", "caps": 0, "minzoom": 5 }, "geometry": { "type": "Point", "coordinates": [ 119.298, 26.082 ] } },
{ "type": "Feature", "properties": { "name": "Bandung", "caps": 0, "minzoom": 5 }, "geometry": { "type": "Point", "coordinates": [ 107.568, -6.948 ] } },
{ "type": "Feature", "properties": { "name": "Surabaya", "caps": 0, "minzoom": 5 }, "geometry": { "type": "Point", "coordinates": [ 112.749, -7.247 ] } },
{ "type": "Feature", "properties": { "name": "Guayaquil", "caps": 0, "minzoom": 5 }, "geometry": { "type": "Point", "coordinates": [ -79.922, -2.218 ] } },
{ "type": "Feature", "properties": { "name": "Cali", "caps": 0, "minzoom": 5 }, "geometry": { "type": "Point", "coordinates": [ -76.502, 3.402 ] } },
{ "type": "Feature", "properties": { "name": "Havana", "caps": 0, "minzoom": 5 }, "geometry": { "type": "Point", "coordinates": [ -82.366, 23.134 ] } },
{ "type": "Feature", "properties": { "name": "Frankfurt", "caps": 0, "minzoom": 5 }, "geometry": { "type": "Point", "coordinates": [ 8.675, 50.1 ] } },
{ "type": "Feature", "properties": { "name": "Hamburg", "caps": 0, "minzoom": 5 }, "geometry": { "type": "Point", "coordinates": [ 9.998, 53.552 ] } },
{ "type": "Feature", "properties": { "name": "Munich", "caps": 0, "minzoom": 5 }, "geometry": { "type": "Point", "coordinates": [ 11.573, 48.132 ] } },
{ "type": "Feature", "properties": { "name": "Prague", "caps": 0, "minzoom": 5 }, "geometry": { "type": "Point", "coordinates": [ 14.423, 50.087 ] } },
{ "type": "Feature", "properties": { "name": "Kuwait City", "caps": 0, "minzoom": 5 }, "geometry": { "type": "Point", "coordinates": [ 47.976, 29.372 ] } },
{ "type": "Feature", "properties": { "name": "Taiyuan", "caps": 0, "minzoom": 5 }, "geometry": { "type": "Point", "coordinates": [ 112.543, 37.877 ] } },
{ "type": "Feature", "properties": { "name": "Changsha", "caps": 0, "minzoom": 5 }, "geometry": { "type": "Point", "coordinates": [ 112.968, 28.202 ] } },
{ "type": "Feature", "properties": { "name": "Kunming", "caps": 0, "minzoom": 5 }, "geometry": { "type": "Point", "coordinates": [ 102.697, 25.043 ] } },
{ "type": "Feature", "properties": { "name": "Zhengzhou", "caps": 0, "minzoom": 5 }, "geometry": { "type": "Point", "coordinates": [ 113.663, 34.757 ] } },
{ "type": "Feature", "properties": { "name": "Jinan", "caps": 0, "minzoom": 5 }, "geometry": { "type": "Point", "coordinates": [ 116.993, 36.677 ] } },
{ "type": "Feature", "properties": { "name": "Nanchang", "caps": 0, "minzoom": 5 }, "geometry": { "type": "Point", "coordinates": [ 115.878, 28.682 ] } },
{ "type": "Feature", "properties": { "name": "Hiroshima", "caps": 0, "minzoom": 5 }, "geometry": { "type": "Point", "coordinates": [ 132.441, 34.39 ] } },
{ "type": "Feature", "properties": { "name": "Baotou", "caps": 0, "minzoom": 5 }, "geometry": { "type": "Point", "coordinates": [ 109.82, 40.654 ] } },
{ "type": "Feature", "properties": { "name": "Sapporo", "caps": 0, "minzoom": 5 }, "geometry": { "type": "Point", "coordinates": [ 141.338, 43.077 ] } },
{ "type": "Feature", "properties": { "name": "Santo Domingo", "caps": 0, "minzoom": 5 }, "geometry": { "type": "Point", "coordinates": [ -69.93, 18.471 ] } },
{ "type": "Feature", "properties": { "name": "Accra", "caps": 0, "minzoom": 5 }, "geometry": { "type": "Point", "coordinates": [ -0.219, 5.552 ] } },
{ "type": "Feature", "properties": { "name": "Nagpur", "caps": 0, "minzoom": 5 }, "geometry": { "type": "Point", "coordinates": [ 79.088, 21.172 ] } },
{ "type": "Feature", "properties": { "name": "Tripoli", "caps": 0, "minzoom": 5 }, "geometry": { "type": "Point", "coordinates": [ 13.18, 32.892 ] } },
{ "type": "Feature", "properties": { "name": "Helsinki", "caps": 0, "minzoom": 5 }, "geometry": { "type": "Point", "coordinates": [ 24.932, 60.164 ] } },
{ "type": "Feature", "properties": { "name": "Mashhad", "caps": 0, "minzoom": 5 }, "geometry": { "type": "Point", "coordinates": [ 59.568, 36.272 ] } },
{ "type": "Feature", "properties": { "name": "Jaipur", "caps": 0, "minzoom": 5 }, "geometry": { "type": "Point", "coordinates": [ 75.808, 26.923 ] } },
{ "type": "Feature", "properties": { "name": "Patna", "caps": 0, "minzoom": 5 }, "geometry": { "type": "Point", "coordinates": [ 85.128, 25.627 ] } },
{ "type": "Feature", "properties": { "name": "København", "caps": 0, "minzoom": 5 }, "geometry": { "type": "Point", "coordinates": [ 12.562, 55.681 ] } },
{ "type": "Feature", "properties": { "name": "Belém", "caps": 0, "minzoom": 5 }, "geometry": { "type": "Point", "coordinates": [ -48.482, -1.448 ] } },
{ "type": "Feature", "properties": { "name": "Edmonton", "caps": 0, "minzoom": 5 }, "geometry": { "type": "Point", "coordinates": [ -113.502, 53.552 ] } },
{ "type": "Feature", "properties": { "name": "Goiânia", "caps": 0, "minzoom": 5 }, "geometry": { "type": "Point", "coordinates": [ -49.302, -16.718 ] } },
{ "type": "Feature", "properties": { "name": "Brussels", "caps": 0, "minzoom": 5 }, "geometry": { "type": "Point", "coordinates": [ 4.331, 50.835 ] } },
{ "type": "Feature", "properties": { "name": "Perth", "caps": 0, "minzoom": 5 }, "geometry": { "type": "Point", "coordinates": [ 115.838, -31.953 ] } },
{ "type": "Feature", "properties": { "name": "Jamshedpur", "caps": 0, "minzoom": 6 }, "geometry": { "type": "Point", "coordinates": [ 86.196, 22.789 ] } },
{ "type": "Feature", "properties": { "name": "Montevideo", "caps": 0, "minzoom": 6 }, "geometry": { "type": "Point", "coordinates": [ -56.187, -34.905 ] } },
{ "type": "Feature", "properties": { "name": "San Jose", "caps": 0, "minzoom": 6 }, "geometry": { "type": "Point", "coordinates": [ -121.888, 37.331 ] } },
{ "type": "Feature", "properties": { "name": "Sacramento", "caps": 0, "minzoom": 6 }, "geometry": { "type": "Point", "coordinates": [ -121.472, 38.577 ] } },
{ "type": "Feature", "properties": { "name": "Las Vegas", "caps": 0, "minzoom": 6 }, "geometry": { "type": "Point", "coordinates": [ -115.151, 36.165 ] } },
{ "type": "Feature", "properties": { "name": "Portland", "caps": 0, "minzoom": 6 }, "geometry": { "type": "Point", "coordinates": [ -122.682, 45.522 ] } },
{ "type": "Feature", "properties": { "name": "San Antonio", "caps": 0, "minzoom": 6 }, "geometry": { "type": "Point", "coordinates": [ -98.493, 29.42 ] } },
{ "type": "Feature", "properties": { "name": "Valencia", "caps": 0, "minzoom": 6 }, "geometry": { "type": "Point", "coordinates": [ -67.982, 10.232 ] } },
{ "type": "Feature", "properties": { "name": "Cleveland", "caps": 0, "minzoom": 6 }, "geometry": { "type": "Point", "coordinates": [ -81.697, 41.472 ] } },
{ "type": "Feature", "properties": { "name": "Cincinnati", "caps": 0, "minzoom": 6 }, "geometry": { "type": "Point", "coordinates": [ -84.459, 39.164 ] } },
{ "type": "Feature", "properties": { "name": "Milwaukee", "caps": 0, "minzoom": 6 }, "geometry": { "type": "Point", "coordinates": [ -87.917, 43.03 ] } },
{ "type": "Feature", "properties": { "name": "Pittsburgh", "caps": 0, "minzoom": 6 }, "geometry": { "type": "Point", "coordinates": [ -80.002, 40.432 ] } },
{ "type": "Feature", "properties": { "name": "Lomé", "caps": 0, "minzoom": 6 }, "geometry": { "type": "Point", "coordinates": [ 1.221, 6.134 ] } },
{ "type": "Feature", "properties": { "name": "Tunis", "caps": 0, "minzoom": 6 }, "geometry": { "type": "Point", "coordinates": [ 10.18, 36.803 ] } },
{ "type": "Feature", "properties": { "name": "Lusaka", "caps": 0, "minzoom": 6 }, "geometry": { "type": "Point", "coordinates": [ 28.281, -15.415 ] } },
{ "type": "Feature", "properties": { "name": "Harare", "caps": 0, "minzoom": 6 }, "geometry": { "type": "Point", "coordinates": [ 31.043, -17.816 ] } },
{ "type": "Feature", "properties": { "name": "Port-au-Prince", "caps": 0, "minzoom": 6 }, "geometry": { "type": "Point", "coordinates": [ -72.338, 18.543 ] } },
{ "type": "Feature", "properties": { "name": "Kampala", "caps": 0, "minzoom": 6 }, "geometry": { "type": "Point", "coordinates": [ 32.581, 0.319 ] } },
{ "type": "Feature", "properties": { "name": "Seville", "caps": 0, "minzoom": 6 }, "geometry": { "type": "Point", "coordinates": [ -5.98, 37.405 ] } },
{ "type": "Feature", "properties": { "name": "Asunción", "caps": 0, "minzoom": 6 }, "geometry": { "type": "Point", "coordinates": [ -57.626, -25.291 ] } },
{ "type": "Feature", "properties": { "name": "Multan", "caps": 0, "minzoom": 6 }, "geometry": { "type": "Point", "coordinates": [ 71.453, 30.202 ] } },
{ "type": "Feature", "properties": { "name": "Hyderabad", "caps": 0, "minzoom": 6 }, "geometry": { "type": "Point", "coordinates": [ 68.373, 25.382 ] } },
{ "type": "Feature", "properties": { "name": "Peshawar", "caps": 0, "minzoom": 6 }, "geometry": { "type": "Point", "coordinates": [ 71.533, 34.007 ] } },
{ "type": "Feature", "properties": { "name": "Pretoria", "caps": 0, "minzoom": 6 }, "geometry": { "type": "Point", "coordinates": [ 28.227, -25.705 ] } },
{ "type": "Feature", "properties": { "name": "Panama City", "caps": 0, "minzoom": 6 }, "geometry": { "type": "Point", "coordinates": [ -79.535, 8.97 ] } },
{ "type": "Feature", "properties": { "name": "Rabat", "caps": 0, "minzoom": 6 }, "geometry": { "type": "Point", "coordinates": [ -6.836, 34.025 ] } },
{ "type": "Feature", "properties": { "name": "Maputo", "caps": 0, "minzoom": 6 }, "geometry": { "type": "Point", "coordinates": [ 32.587, -25.953 ] } },
{ "type": "Feature", "properties": { "name": "Nizhny Novgorod", "caps": 0, "minzoom": 6 }, "geometry": { "type": "Point", "coordinates": [ 43.998, 56.335 ] } },
{ "type": "Feature", "properties": { "name": "Yekaterinburg", "caps": 0, "minzoom": 6 }, "geometry": { "type": "Point", "coordinates": [ 60.598, 56.852 ] } },
{ "type": "Feature", "properties": { "name": "Novosibirsk", "caps": 0, "minzoom": 6 }, "geometry": { "type": "Point", "coordinates": [ 82.958, 55.032 ] } },
{ "type": "Feature", "properties": { "name": "Davao", "caps": 0, "minzoom": 6 }, "geometry": { "type": "Point", "coordinates": [ 125.628, 7.112 ] } },
{ "type": "Feature", "properties": { "name": "Tijuana", "caps": 0, "minzoom": 6 }, "geometry": { "type": "Point", "coordinates": [ -117.082, 32.502 ] } },
{ "type": "Feature", "properties": { "name": "Abuja", "caps": 0, "minzoom": 6 }, "geometry": { "type": "Point", "coordinates": [ 7.49, 9.055 ] } },
{ "type": "Feature", "properties": { "name": "Huainan", "caps": 0, "minzoom": 6 }, "geometry": { "type": "Point", "coordinates": [ 116.978, 32.632 ] } },
{ "type": "Feature", "properties": { "name": "Shantou", "caps": 0, "minzoom": 6 }, "geometry": { "type": "Point", "coordinates": [ 116.668, 23.372 ] } },
{ "type": "Feature", "properties": { "name": "Antananarivo", "caps": 0, "minzoom": 6 }, "geometry": { "type": "Point", "coordinates": [ 47.515, -18.915 ] } },
{ "type": "Feature", "properties": { "name": "Semarang", "caps": 0, "minzoom": 6 }, "geometry": { "type": "Point", "coordinates": [ 110.418, -6.965 ] } },
{ "type": "Feature", "properties": { "name": "Palembang", "caps": 0, "minzoom": 6 }, "geometry": { "type": "Point", "coordinates": [ 104.748, -2.978 ] } },
{ "type": "Feature", "properties": { "name": "Makassar", "caps": 0, "minzoom": 6 }, "geometry": { "type": "Point", "coordinates": [ 119.43, -5.138 ] } },
{ "type": "Feature", "properties": { "name": "Lyon", "caps": 0, "minzoom": 6 }, "geometry": { "type": "Point", "coordinates": [ 4.828, 45.772 ] } },
{ "type": "Feature", "properties": { "name": "Quito", "caps": 0, "minzoom": 6 }, "geometry": { "type": "Point", "coordinates": [ -78.502, -0.213 ] } },
{ "type": "Feature", "properties": { "name": "San José", "caps": 0, "minzoom": 6 }, "geometry": { "type": "Point", "coordinates": [ -84.079, 9.93 ] } },
{ "type": "Feature", "properties": { "name": "San Salvador", "caps": 0, "minzoom": 6 }, "geometry": { "type": "Point", "coordinates": [ -89.216, 13.703 ] } },
{ "type": "Feature", "properties": { "name": "Qiqihar", "caps": 0, "minzoom": 6 }, "geometry": { "type": "Point", "coordinates": [ 123.988, 47.347 ] } },
{ "type": "Feature", "properties": { "name": "Lubumbashi", "caps": 0, "minzoom": 6 }, "geometry": { "type": "Point", "coordinates": [ 27.478, -11.678 ] } },
{ "type": "Feature", "properties": { "name": "Vishakhapatnam", "caps": 0, "minzoom": 6 }, "geometry": { "type": "Point", "coordinates": [ 83.22, 17.683 ] } },
{ "type": "Feature", "properties": { "name": "Bamako", "caps": 0, "minzoom": 6 }, "geometry": { "type": "Point", "coordinates": [ -8.002, 12.652 ] } },
{ "type": "Feature", "properties": { "name": "Beirut", "caps": 0, "minzoom": 6 }, "geometry": { "type": "Point", "coordinates": [ 35.508, 33.874 ] } },
{ "type": "Feature", "properties": { "name": "Almaty", "caps": 0, "minzoom": 6 }, "geometry": { "type": "Point", "coordinates": [ 76.913, 43.327 ] } },
{ "type": "Feature", "properties": { "name": "Isfahan", "caps": 0, "minzoom": 6 }, "geometry": { "type": "Point", "coordinates": [ 51.698, 32.702 ] } },
{ "type": "Feature", "properties": { "name": "Shiraz", "caps": 0, "minzoom": 6 }, "geometry": { "type": "Point", "coordinates": [ 52.568, 29.632 ] } },
{ "type": "Feature", "properties": { "name": "Amritsar", "caps": 0, "minzoom": 6 }, "geometry": { "type": "Point", "coordinates": [ 74.868, 31.642 ] } },
{ "type": "Feature", "properties": { "name": "Varanasi", "caps": 0, "minzoom": 6 }, "geometry": { "type": "Point", "coordinates": [ 82.998, 25.332 ] } },
{ "type": "Feature", "properties": { "name": "Asansol", "caps": 0, "minzoom": 6 }, "geometry": { "type": "Point", "coordinates": [ 86.981, 23.685 ] } },
{ "type": "Feature", "properties": { "name": "Bhopal", "caps": 0, "minzoom": 6 }, "geometry": { "type": "Point", "coordinates": [ 77.408, 23.252 ] } },
{ "type": "Feature", "properties": { "name": "Madurai", "caps": 0, "minzoom": 6 }, "geometry": { "type": "Point", "coordinates": [ 78.118, 9.922 ] } },
{ "type": "Feature", "properties": { "name": "Coimbatore", "caps": 0, "minzoom": 6 }, "geometry": { "type": "Point", "coordinates": [ 76.948, 11.002 ] } },
{ "type": "Feature", "properties": { "name": "Brazzaville", "caps": 0, "minzoom": 6 }, "geometry": { "type": "Point", "coordinates": [ 15.283, -4.257 ] } },
{ "type": "Feature", "properties": { "name": "Conakry", "caps": 0, "minzoom": 6 }, "geometry": { "type": "Point", "coordinates": [ -13.682, 9.533 ] } },
{ "type": "Feature", "properties": { "name": "Manaus", "caps": 0, "minzoom": 6 }, "geometry": { "type": "Point", "coordinates": [ -60.002, -3.098 ] } },
{ "type": "Feature", "properties": { "name": "Córdoba", "caps": 0, "minzoom": 6 }, "geometry": { "type": "Point", "coordinates": [ -64.184, -31.398 ] } },
{ "type": "Feature", "properties": { "name": "Yaoundé", "caps": 0, "minzoom": 6 }, "geometry": { "type": "Point", "coordinates": [ 11.515, 3.869 ] } },
{ "type": "Feature", "properties": { "name": "Baku", "caps": 0, "minzoom": 6 }, "geometry": { "type": "Point", "coordinates": [ 49.86, 40.397 ] } },
{ "type": "Feature", "properties": { "name": "Phnom Penh", "caps": 0, "minzoom": 6 }, "geometry": { "type": "Point", "coordinates": [ 104.915, 11.552 ] } },
{ "type": "Feature", "properties": { "name": "La Paz", "caps": 0, "minzoom": 6 }, "geometry": { "type": "Point", "coordinates": [ -68.152, -16.496 ] } },
{ "type": "Feature", "properties": { "name": "Santa Cruz", "caps": 0, "minzoom": 6 }, "geometry": { "type": "Point", "coordinates": [ -63.228, -17.752 ] } },
{ "type": "Feature", "properties": { "name": "Minsk", "caps": 0, "minzoom": 6 }, "geometry": { "type": "Point", "coordinates": [ 27.565, 53.902 ] } },
{ "type": "Feature", "properties": { "name": "Brisbane", "caps": 0, "minzoom": 6 }, "geometry": { "type": "Point", "coordinates": [ 153.033, -27.453 ] } },
{ "type": "Feature", "properties": { "name": "San Juan", "caps": 0, "minzoom": 6 }, "geometry": { "type": "Point", "coordinates": [ -66.13, 18.44 ] } },
{ "type": "Feature", "properties": { "name": "Kaohsiung", "caps": 0, "minzoom": 6 }, "geometry": { "type": "Point", "coordinates": [ 120.267, 22.633 ] } },
{ "type": "Feature", "properties": { "name": "San Bernardino", "caps": 0, "minzoom": 7 }, "geometry": { "type": "Point", "coordinates": [ -117.302, 34.122 ] } },
{ "type": "Feature", "properties": { "name": "Manchester", "caps": 0, "minzoom": 7 }, "geometry": { "type": "Point", "coordinates": [ -2.249, 53.475 ] } },
{ "type": "Feature", "properties": { "name": "Gujranwala", "caps": 0, "minzoom": 7 }, "geometry": { "type": "Point", "coordinates": [ 74.183, 32.162 ] } },
{ "type": "Feature", "properties": { "name": "Incheon", "caps": 0, "minzoom": 7 }, "geometry": { "type": "Point", "coordinates": [ 126.64, 37.478 ] } },
{ "type": "Feature", "properties": { "name": "Xiamen", "caps": 0, "minzoom": 7 }, "geometry": { "type": "Point", "coordinates": [ 118.078, 24.452 ] } },
{ "type": "Feature", "properties": { "name": "Nanchong", "caps": 0, "minzoom": 7 }, "geometry": { "type": "Point", "coordinates": [ 106.128, 30.782 ] } },
{ "type": "Feature", "properties": { "name": "Nanyang", "caps": 0, "minzoom": 7 }, "geometry": { "type": "Point", "coordinates": [ 112.528, 33.002 ] } },
{ "type": "Feature", "properties": { "name": "Jinxi", "caps": 0, "minzoom": 7 }, "geometry": { "type": "Point", "coordinates": [ 120.828, 40.752 ] } },
{ "type": "Feature", "properties": { "name": "Yantai", "caps": 0, "minzoom": 7 }, "geometry": { "type": "Point", "coordinates": [ 121.398, 37.532 ] } },
{ "type": "Feature", "properties": { "name": "Zaozhuang", "caps": 0, "minzoom": 7 }, "geometry": { "type": "Point", "coordinates": [ 117.568, 34.882 ] } },
{ "type": "Feature", "properties": { "name": "Suzhou", "caps": 0, "minzoom": 7 }, "geometry": { "type": "Point", "coordinates": [ 120.618, 31.302 ] } },
{ "type": "Feature", "properties": { "name": "Xuzhou", "caps": 0, "minzoom": 7 }, "geometry": { "type": "Point", "coordinates": [ 117.178, 34.282 ] } },
{ "type": "Feature", "properties": { "name": "Wuxi", "caps": 0, "minzoom": 7 }, "geometry": { "type": "Point", "coordinates": [ 120.298, 31.582 ] } },
{ "type": "Feature", "properties": { "name": "Jilin", "caps": 0, "minzoom": 7 }, "geometry": { "type": "Point", "coordinates": [ 126.548, 43.852 ] } },
{ "type": "Feature", "properties": { "name": "Agra", "caps": 0, "minzoom": 7 }, "geometry": { "type": "Point", "coordinates": [ 78.013, 27.172 ] } },
{ "type": "Feature", "properties": { "name": "Vadodara", "caps": 0, "minzoom": 7 }, "geometry": { "type": "Point", "coordinates": [ 73.178, 22.312 ] } },
{ "type": "Feature", "properties": { "name": "Baltimore", "caps": 0, "minzoom": 7 }, "geometry": { "type": "Point", "coordinates": [ -76.615, 39.282 ] } },
{ "type": "Feature", "properties": { "name": "Haiphong", "caps": 0, "minzoom": 7 }, "geometry": { "type": "Point", "coordinates": [ 106.678, 20.832 ] } },
{ "type": "Feature", "properties": { "name": "Douala", "caps": 0, "minzoom": 7 }, "geometry": { "type": "Point", "coordinates": [ 9.708, 4.062 ] } },
{ "type": "Feature", "properties": { "name": "Birmingham", "caps": 0, "minzoom": 7 }, "geometry": { "type": "Point", "coordinates": [ -1.922, 52.477 ] } },
{ "type": "Feature", "properties": { "name": "İzmir", "caps": 0, "minzoom": 7 }, "geometry": { "type": "Point", "coordinates": [ 27.15, 38.438 ] } },
{ "type": "Feature", "properties": { "name": "Omdurman", "caps": 0, "minzoom": 7 }, "geometry": { "type": "Point", "coordinates": [ 32.48, 15.617 ] } },
{ "type": "Feature", "properties": { "name": "Busan", "caps": 0, "minzoom": 7 }, "geometry": { "type": "Point", "coordinates": [ 129.008, 35.097 ] } },
{ "type": "Feature", "properties": { "name": "Ibadan", "caps": 0, "minzoom": 7 }, "geometry": { "type": "Point", "coordinates": [ 3.928, 7.382 ] } },
{ "type": "Feature", "properties": { "name": "Florence", "caps": 0, "minzoom": 7 }, "geometry": { "type": "Point", "coordinates": [ 11.25, 43.78 ] } },
{ "type": "Feature", "properties": { "name": "George Town", "caps": 0, "minzoom": 7 }, "geometry": { "type": "Point", "coordinates": [ 100.329, 5.414 ] } },
{ "type": "Feature", "properties": { "name": "Hefei", "caps": 0, "minzoom": 7 }, "geometry": { "type": "Point", "coordinates": [ 117.278, 31.852 ] } },
{ "type": "Feature", "properties": { "name": "Suzhou", "caps": 0, "minzoom": 7 }, "geometry": { "type": "Point", "coordinates": [ 116.977, 33.638 ] } },
{ "type": "Feature", "properties": { "name": "Zhanjiang", "caps": 0, "minzoom": 7 }, "geometry": { "type": "Point", "coordinates": [ 110.378, 21.202 ] } },
{ "type": "Feature", "properties": { "name": "Santiago", "caps": 0, "minzoom": 7 }, "geometry": { "type": "Point", "coordinates": [ -70.67, 19.5 ] } },
{ "type": "Feature", "properties": { "name": "Barranquilla", "caps": 0, "minzoom": 7 }, "geometry": { "type": "Point", "coordinates": [ -74.802, 10.962 ] } },
{ "type": "Feature", "properties": { "name": "Shijiazhuang", "caps": 0, "minzoom": 7 }, "geometry": { "type": "Point", "coordinates": [ 114.478, 38.052 ] } },
{ "type": "Feature", "properties": { "name": "Handan", "caps": 0, "minzoom": 7 }, "geometry": { "type": "Point", "coordinates": [ 114.478, 36.582 ] } },
{ "type": "Feature", "properties": { "name": "Anshan", "caps": 0, "minzoom": 7 }, "geometry": { "type": "Point", "coordinates": [ 122.938, 41.117 ] } },
{ "type": "Feature", "properties": { "name": "Dalian", "caps": 0, "minzoom": 7 }, "geometry": { "type": "Point", "coordinates": [ 121.628, 38.925 ] } },
{ "type": "Feature", "properties": { "name": "Qingdao", "caps": 0, "minzoom": 7 }, "geometry": { "type": "Point", "coordinates": [ 120.328, 36.092 ] } },
{ "type": "Feature", "properties": { "name": "Linyi", "caps": 0, "minzoom": 7 }, "geometry": { "type": "Point", "coordinates": [ 118.328, 35.082 ] } },
{ "type": "Feature", "properties": { "name": "Wenzhou", "caps": 0, "minzoom": 7 }, "geometry": { "type": "Point", "coordinates": [ 120.648, 28.022 ] } },
{ "type": "Feature", "properties": { "name": "Ningbo", "caps": 0, "minzoom": 7 }, "geometry": { "type": "Point", "coordinates": [ 121.548, 29.882 ] } },
{ "type": "Feature", "properties": { "name": "Fukuoka", "caps": 0, "minzoom": 7 }, "geometry": { "type": "Point", "coordinates": [ 130.408, 33.597 ] } },
{ "type": "Feature", "properties": { "name": "Hohhot", "caps": 0, "minzoom": 7 }, "geometry": { "type": "Point", "coordinates": [ 111.658, 40.822 ] } },
{ "type": "Feature", "properties": { "name": "Daqing", "caps": 0, "minzoom": 7 }, "geometry": { "type": "Point", "coordinates": [ 124.998, 46.582 ] } },
{ "type": "Feature", "properties": { "name": "Nagoya", "caps": 0, "minzoom": 7 }, "geometry": { "type": "Point", "coordinates": [ 136.913, 35.157 ] } },
{ "type": "Feature", "properties": { "name": "Kyoto", "caps": 0, "minzoom": 7 }, "geometry": { "type": "Point", "coordinates": [ 135.748, 35.032 ] } },
{ "type": "Feature", "properties": { "name": "Sendai", "caps": 0, "minzoom": 7 }, "geometry": { "type": "Point", "coordinates": [ 140.87, 38.268 ] } },
{ "type": "Feature", "properties": { "name": "Kochi", "caps": 0, "minzoom": 7 }, "geometry": { "type": "Point", "coordinates": [ 76.222, 10.017 ] } },
{ "type": "Feature", "properties": { "name": "Ludhiana", "caps": 0, "minzoom": 7 }, "geometry": { "type": "Point", "coordinates": [ 75.87, 30.93 ] } },
{ "type": "Feature", "properties": { "name": "Lucknow", "caps": 0, "minzoom": 7 }, "geometry": { "type": "Point", "coordinates": [ 80.913, 26.857 ] } },
{ "type": "Feature", "properties": { "name": "Indore", "caps": 0, "minzoom": 7 }, "geometry": { "type": "Point", "coordinates": [ 75.863, 22.717 ] } },
{ "type": "Feature", "properties": { "name": "Belo Horizonte", "caps": 0, "minzoom": 7 }, "geometry": { "type": "Point", "coordinates": [ -43.917, -19.913 ] } },
{ "type": "Feature", "properties": { "name": "Campinas", "caps": 0, "minzoom": 7 }, "geometry": { "type": "Point", "coordinates": [ -47.056, -22.908 ] } },
{ "type": "Feature", "properties": { "name": "Khulna", "caps": 0, "minzoom": 7 }, "geometry": { "type": "Point", "coordinates": [ 89.558, 22.842 ] } },
{ "type": "Feature", "properties": { "name": "Taichung", "caps": 0, "minzoom": 7 }, "geometry": { "type": "Point", "coordinates": [ 120.682, 24.152 ] } },
{ "type": "Feature", "properties": { "name": "Amaravati", "caps": 0, "minzoom": 7 }, "geometry": { "type": "Point", "coordinates": [ 80.524, 16.534 ] } },
{ "type": "Feature", "properties": { "name": "Kozhikode", "caps": 0, "minzoom": 7 }, "geometry": { "type": "Point", "coordinates": [ 75.768, 11.252 ] } },
{ "type": "Feature", "properties": { "name": "Bhubaneswar", "caps": 0, "minzoom": 7 }, "geometry": { "type": "Point", "coordinates": [ 85.825, 20.272 ] } },
{ "type": "Feature", "properties": { "name": "Salt Lake City", "caps": 0, "minzoom": 7 }, "geometry": { "type": "Point", "coordinates": [ -111.932, 40.777 ] } },
{ "type": "Feature", "properties": { "name": "Omaha", "caps": 0, "minzoom": 7 }, "geometry": { "type": "Point", "coordinates": [ -96.01, 41.24 ] } },
{ "type": "Feature", "properties": { "name": "Raleigh", "caps": 0, "minzoom": 7 }, "geometry": { "type": "Point", "coordinates": [ -78.647, 35.773 ] } },
{ "type": "Feature", "properties": { "name": "Nashville", "caps": 0, "minzoom": 7 }, "geometry": { "type": "Point", "coordinates": [ -86.782, 36.172 ] } },
{ "type": "Feature", "properties": { "name": "Memphis", "caps": 0, "minzoom": 7 }, "geometry": { "type": "Point", "coordinates": [ -90.029, 35.145 ] } },
{ "type": "Feature", "properties": { "name": "Norfolk", "caps": 0, "minzoom": 7 }, "geometry": { "type": "Point", "coordinates": [ -76.28, 36.85 ] } },
{ "type": "Feature", "properties": { "name": "Buffalo", "caps": 0, "minzoom": 7 }, "geometry": { "type": "Point", "coordinates": [ -78.882, 42.882 ] } },
{ "type": "Feature", "properties": { "name": "Tegucigalpa", "caps": 0, "minzoom": 7 }, "geometry": { "type": "Point", "coordinates": [ -87.219, 14.104 ] } },
{ "type": "Feature", "properties": { "name": "Glasgow", "caps": 0, "minzoom": 7 }, "geometry": { "type": "Point", "coordinates": [ -4.239, 55.862 ] } },
{ "type": "Feature", "properties": { "name": "Aden", "caps": 0, "minzoom": 7 }, "geometry": { "type": "Point", "coordinates": [ 45.009, 12.78 ] } },
{ "type": "Feature", "properties": { "name": "Niamey", "caps": 0, "minzoom": 7 }, "geometry": { "type": "Point", "coordinates": [ 2.115, 13.519 ] } },
{ "type": "Feature", "properties": { "name": "Dushanbe", "caps": 0, "minzoom": 7 }, "geometry": { "type": "Point", "coordinates": [ 68.774, 38.56 ] } },
{ "type": "Feature", "properties": { "name": "Managua", "caps": 0, "minzoom": 7 }, "geometry": { "type": "Point", "coordinates": [ -86.27, 12.155 ] } },
{ "type": "Feature", "properties": { "name": "Freetown", "caps": 0, "minzoom": 7 }, "geometry": { "type": "Point", "coordinates": [ -13.236, 8.472 ] } },
{ "type": "Feature", "properties": { "name": "Kathmandu", "caps": 0, "minzoom": 7 }, "geometry": { "type": "Point", "coordinates": [ 85.315, 27.719 ] } },
{ "type": "Feature", "properties": { "name": "Fez", "caps": 0, "minzoom": 7 }, "geometry": { "type": "Point", "coordinates": [ -5.002, 34.057 ] } },
{ "type": "Feature", "properties": { "name": "Marrakesh", "caps": 0, "minzoom": 7 }, "geometry": { "type": "Point", "coordinates": [ -8.002, 31.632 ] } },
{ "type": "Feature", "properties": { "name": "Port Elizabeth", "caps": 0, "minzoom": 7 }, "geometry": { "type": "Point", "coordinates": [ 25.598, -33.968 ] } },
{ "type": "Feature", "properties": { "name": "Volgograd", "caps": 0, "minzoom": 7 }, "geometry": { "type": "Point", "coordinates": [ 44.498, 48.712 ] } },
{ "type": "Feature", "properties": { "name": "Ufa", "caps": 0, "minzoom": 7 }, "geometry": { "type": "Point", "coordinates": [ 56.038, 54.792 ] } },
{ "type": "Feature", "properties": { "name": "Samara", "caps": 0, "minzoom": 7 }, "geometry": { "type": "Point", "coordinates": [ 50.149, 53.197 ] } },
{ "type": "Feature", "properties": { "name": "Kazan", "caps": 0, "minzoom": 7 }, "geometry": { "type": "Point", "coordinates": [ 49.124, 55.752 ] } },
{ "type": "Feature", "properties": { "name": "Mogadishu", "caps": 0, "minzoom": 7 }, "geometry": { "type": "Point", "coordinates": [ 45.365, 2.069 ] } },
{ "type": "Feature", "properties": { "name": "Cebu", "caps": 0, "minzoom": 7 }, "geometry": { "type": "Point", "coordinates": [ 123.898, 10.322 ] } },
{ "type": "Feature", "properties": { "name": "Krasnoyarsk", "caps": 0, "minzoom": 7 }, "geometry": { "type": "Point", "coordinates": [ 92.864, 56.016 ] } },
{ "type": "Feature", "properties": { "name": "Tampico", "caps": 0, "minzoom": 7 }, "geometry": { "type": "Point", "coordinates": [ -97.87, 22.3 ] } },
{ "type": "Feature", "properties": { "name": "Mérida", "caps": 0, "minzoom": 7 }, "geometry": { "type": "Point", "coordinates": [ -89.619, 20.969 ] } },
{ "type": "Feature", "properties": { "name": "Perm", "caps": 0, "minzoom": 7 }, "geometry": { "type": "Point", "coordinates": [ 56.248, 58.002 ] } },
{ "type": "Feature", "properties": { "name": "Ulaanbaatar", "caps": 0, "minzoom": 7 }, "geometry": { "type": "Point", "coordinates": [ 106.915, 47.919 ] } },
{ "type": "Feature", "properties": { "name": "Valencia", "caps": 0, "minzoom": 7 }, "geometry": { "type": "Point", "coordinates": [ -0.402, 39.487 ] } },
{ "type": "Feature", "properties": { "name": "Padang", "caps": 0, "minzoom": 7 }, "geometry": { "type": "Point", "coordinates": [ 100.358, -0.958 ] } },
{ "type": "Feature", "properties": { "name": "Palermo", "caps": 0, "minzoom": 7 }, "geometry": { "type": "Point", "coordinates": [ 13.348, 38.127 ] } },
{ "type": "Feature", "properties": { "name": "Amman", "caps": 0, "minzoom": 7 }, "geometry": { "type": "Point", "coordinates": [ 35.931, 31.952 ] } },
{ "type": "Feature", "properties": { "name": "Bishkek", "caps": 0, "minzoom": 7 }, "geometry": { "type": "Point", "coordinates": [ 74.583, 42.875 ] } },
{ "type": "Feature", "properties": { "name": "Xining", "caps": 0, "minzoom": 7 }, "geometry": { "type": "Point", "coordinates": [ 101.768, 36.622 ] } },
{ "type": "Feature", "properties": { "name": "Guilin", "caps": 0, "minzoom": 7 }, "geometry": { "type": "Point", "coordinates": [ 110.278, 25.282 ] } },
{ "type": "Feature", "properties": { "name": "Mombasa", "caps": 0, "minzoom": 7 }, "geometry": { "type": "Point", "coordinates": [ 39.688, -4.038 ] } },
{ "type": "Feature", "properties": { "name": "Kingston", "caps": 0, "minzoom": 7 }, "geometry": { "type": "Point", "coordinates": [ -76.767, 17.977 ] } },
{ "type": "Feature", "properties": { "name": "Cartagena", "caps": 0, "minzoom": 7 }, "geometry": { "type": "Point", "coordinates": [ -75.516, 10.402 ] } },
{ "type": "Feature", "properties": { "name": "N'Djamena", "caps": 0, "minzoom": 7 }, "geometry": { "type": "Point", "coordinates": [ 15.047, 12.115 ] } },
{ "type": "Feature", "properties": { "name": "Yinchuan", "caps": 0, "minzoom": 7 }, "geometry": { "type": "Point", "coordinates": [ 106.271, 38.47 ] } },
{ "type": "Feature", "properties": { "name": "Pingxiang", "caps": 0, "minzoom": 7 }, "geometry": { "type": "Point", "coordinates": [ 113.848, 27.622 ] } },
{ "type": "Feature", "properties": { "name": "Guatemala City", "caps": 0, "minzoom": 7 }, "geometry": { "type": "Point", "coordinates": [ -90.529, 14.623 ] } },
{ "type": "Feature", "properties": { "name": "Valparaíso", "caps": 0, "minzoom": 7 }, "geometry": { "type": "Point", "coordinates": [ -71.617, -33.048 ] } },
{ "type": "Feature", "properties": { "name": "Concepción", "caps": 0, "minzoom": 7 }, "geometry": { "type": "Point", "coordinates": [ -73.05, -36.83 ] } },
{ "type": "Feature", "properties": { "name": "Banghazi", "caps": 0, "minzoom": 7 }, "geometry": { "type": "Point", "coordinates": [ 20.065, 32.119 ] } },
{ "type": "Feature", "properties": { "name": "Thessaloniki", "caps": 0, "minzoom": 7 }, "geometry": { "type": "Point", "coordinates": [ 22.883, 40.698 ] } },
{ "type": "Feature", "properties": { "name": "Tbilisi", "caps": 0, "minzoom": 7 }, "geometry": { "type": "Point", "coordinates": [ 44.789, 41.727 ] } },
{ "type": "Feature", "properties": { "name": "Bhilai", "caps": 0, "minzoom": 7 }, "geometry": { "type": "Point", "coordinates": [ 81.372, 21.211 ] } },
{ "type": "Feature", "properties": { "name": "Florianópolis", "caps": 0, "minzoom": 7 }, "geometry": { "type": "Point", "coordinates": [ -48.522, -27.578 ] } },
{ "type": "Feature", "properties": { "name": "Calgary", "caps": 0, "minzoom": 7 }, "geometry": { "type": "Point", "coordinates": [ -114.082, 51.085 ] } },
{ "type": "Feature", "properties": { "name": "Ottawa", "caps": 0, "minzoom": 7 }, "geometry": { "type": "Point", "coordinates": [ -75.702, 45.419 ] } },
{ "type": "Feature", "properties": { "name": "Belgrade", "caps": 0, "minzoom": 7 }, "geometry": { "type": "Point", "coordinates": [ 20.466, 44.821 ] } },
{ "type": "Feature", "properties": { "name": "Mendoza", "caps": 0, "minzoom": 7 }, "geometry": { "type": "Point", "coordinates": [ -68.819, -32.881 ] } },
{ "type": "Feature", "properties": { "name": "Bangui", "caps": 0, "minzoom": 7 }, "geometry": { "type": "Point", "coordinates": [ 18.558, 4.367 ] } },
{ "type": "Feature", "properties": { "name": "Tirana", "caps": 0, "minzoom": 7 }, "geometry": { "type": "Point", "coordinates": [ 19.819, 41.328 ] } },
{ "type": "Feature", "properties": { "name": "Yerevan", "caps": 0, "minzoom": 7 }, "geometry": { "type": "Point", "coordinates": [ 44.512, 40.183 ] } },
{ "type": "Feature", "properties": { "name": "Huambo", "caps": 0, "minzoom": 7 }, "geometry": { "type": "Point", "coordinates": [ 15.758, -12.748 ] } },
{ "type": "Feature", "properties": { "name": "Sofia", "caps": 0, "minzoom": 7 }, "geometry": { "type": "Point", "coordinates": [ 23.315, 42.685 ] } },
{ "type": "Feature", "properties": { "name": "Adelaide", "caps": 0, "minzoom": 7 }, "geometry": { "type": "Point", "coordinates": [ 138.598, -34.933 ] } },
{ "type": "Feature", "properties": { "name": "Ouagadougou", "caps": 0, "minzoom": 7 }, "geometry": { "type": "Point", "coordinates": [ -1.527, 12.372 ] } },
{ "type": "Feature", "properties": { "name": "Naypyidaw", "caps": 0, "minzoom": 7 }, "geometry": { "type": "Point", "coordinates": [ 96.117, 19.769 ] } },
{ "type": "Feature", "properties": { "name": "Jerusalem", "caps": 0, "minzoom": 7 }, "geometry": { "type": "Point", "coordinates": [ 35.207, 31.778 ] } },
{ "type": "Feature", "properties": { "name": "Bridgeport", "caps": 0, "minzoom": 8 }, "geometry": { "type": "Point", "coordinates": [ -73.202, 41.182 ] } },
{ "type": "Feature", "properties": { "name": "Benin City", "caps": 0, "minzoom": 8 }, "geometry": { "type": "Point", "coordinates": [ 5.618, 6.342 ] } },
{ "type": "Feature", "properties": { "name": "Neijiang", "caps": 0, "minzoom": 8 }, "geometry": { "type": "Point", "coordinates": [ 105.048, 29.582 ] } },
{ "type": "Feature", "properties": { "name": "Chandigarh", "caps": 0, "minzoom": 8 }, "geometry": { "type": "Point", "coordinates": [ 76.778, 30.722 ] } },
{ "type": "Feature", "properties": { "name": "Sholapur", "caps": 0, "minzoom": 8 }, "geometry": { "type": "Point", "coordinates": [ 75.898, 17.672 ] } },
{ "type": "Feature", "properties": { "name": "Aurangabad", "caps": 0, "minzoom": 8 }, "geometry": { "type": "Point", "coordinates": [ 75.329, 19.862 ] } },
{ "type": "Feature", "properties": { "name": "Nasik", "caps": 0, "minzoom": 8 }, "geometry": { "type": "Point", "coordinates": [ 73.778, 20.002 ] } },
{ "type": "Feature", "properties": { "name": "Jullundur", "caps": 0, "minzoom": 8 }, "geometry": { "type": "Point", "coordinates": [ 75.567, 31.337 ] } },
{ "type": "Feature", "properties": { "name": "Allahabad", "caps": 0, "minzoom": 8 }, "geometry": { "type": "Point", "coordinates": [ 81.838, 25.457 ] } },
{ "type": "Feature", "properties": { "name": "Ghaziabad", "caps": 0, "minzoom": 8 }, "geometry": { "type": "Point", "coordinates": [ 77.406, 28.662 ] } },
{ "type": "Feature", "properties": { "name": "Aligarh", "caps": 0, "minzoom": 8 }, "geometry": { "type": "Point", "coordinates": [ 78.06, 27.894 ] } },
{ "type": "Feature", "properties": { "name": "Meerut", "caps": 0, "minzoom": 8 }, "geometry": { "type": "Point", "coordinates": [ 77.698, 29.002 ] } },
{ "type": "Feature", "properties": { "name": "Dhanbad", "caps": 0, "minzoom": 8 }, "geometry": { "type": "Point", "coordinates": [ 86.418, 23.802 ] } },
{ "type": "Feature", "properties": { "name": "Gwalior", "caps": 0, "minzoom": 8 }, "geometry": { "type": "Point", "coordinates": [ 78.169, 26.2 ] } },
{ "type": "Feature", "properties": { "name": "Rajkot", "caps": 0, "minzoom": 8 }, "geometry": { "type": "Point", "coordinates": [ 70.798, 22.312 ] } },
{ "type": "Feature", "properties": { "name": "Tucson", "caps": 0, "minzoom": 8 }, "geometry": { "type": "Point", "coordinates": [ -110.892, 32.207 ] } },
{ "type": "Feature", "properties": { "name": "Albuquerque", "caps": 0, "minzoom": 8 }, "geometry": { "type": "Point", "coordinates": [ -106.641, 35.105 ] } },
{ "type": "Feature", "properties": { "name": "Kansas City", "caps": 0, "minzoom": 8 }, "geometry": { "type": "Point", "coordinates": [ -94.606, 39.109 ] } },
{ "type": "Feature", "properties": { "name": "Tulsa", "caps": 0, "minzoom": 8 }, "geometry": { "type": "Point", "coordinates": [ -95.93, 36.12 ] } },
{ "type": "Feature", "properties": { "name": "Ft.  Worth", "caps": 0, "minzoom": 8 }, "geometry": { "type": "Point", "coordinates": [ -97.34, 32.74 ] } },
{ "type": "Feature", "properties": { "name": "Austin", "caps": 0, "minzoom": 8 }, "geometry": { "type": "Point", "coordinates": [ -97.745, 30.269 ] } },
{ "type": "Feature", "properties": { "name": "Orlando", "caps": 0, "minzoom": 8 }, "geometry": { "type": "Point", "coordinates": [ -81.382, 28.512 ] } },
{ "type": "Feature", "properties": { "name": "Jacksonville", "caps": 0, "minzoom": 8 }, "geometry": { "type": "Point", "coordinates": [ -81.672, 30.332 ] } },
{ "type": "Feature", "properties": { "name": "Indianapolis", "caps": 0, "minzoom": 8 }, "geometry": { "type": "Point", "coordinates": [ -86.172, 39.752 ] } },
{ "type": "Feature", "properties": { "name": "Richmond", "caps": 0, "minzoom": 8 }, "geometry": { "type": "Point", "coordinates": [ -77.452, 37.552 ] } },
{ "type": "Feature", "properties": { "name": "Lviv", "caps": 0, "minzoom": 8 }, "geometry": { "type": "Point", "coordinates": [ 24.03, 49.835 ] } },
{ "type": "Feature", "properties": { "name": "Odessa", "caps": 0, "minzoom": 8 }, "geometry": { "type": "Point", "coordinates": [ 30.708, 46.492 ] } },
{ "type": "Feature", "properties": { "name": "Dnipro", "caps": 0, "minzoom": 8 }, "geometry": { "type": "Point", "coordinates": [ 34.998, 48.482 ] } },
{ "type": "Feature", "properties": { "name": "Donetsk", "caps": 0, "minzoom": 8 }, "geometry": { "type": "Point", "coordinates": [ 37.828, 48.002 ] } },
{ "type": "Feature", "properties": { "name": "Kharkiv", "caps": 0, "minzoom": 8 }, "geometry": { "type": "Point", "coordinates": [ 36.248, 50.002 ] } },
{ "type": "Feature", "properties": { "name": "Da Nang", "caps": 0, "minzoom": 8 }, "geometry": { "type": "Point", "coordinates": [ 108.25, 16.06 ] } },
{ "type": "Feature", "properties": { "name": "Bursa", "caps": 0, "minzoom": 8 }, "geometry": { "type": "Point", "coordinates": [ 29.068, 40.202 ] } },
{ "type": "Feature", "properties": { "name": "Konya", "caps": 0, "minzoom": 8 }, "geometry": { "type": "Point", "coordinates": [ 32.473, 37.877 ] } },
{ "type": "Feature", "properties": { "name": "Adana", "caps": 0, "minzoom": 8 }, "geometry": { "type": "Point", "coordinates": [ 35.318, 36.997 ] } },
{ "type": "Feature", "properties": { "name": "Kigali", "caps": 0, "minzoom": 8 }, "geometry": { "type": "Point", "coordinates": [ 30.059, -1.952 ] } },
{ "type": "Feature", "properties": { "name": "Arequipa", "caps": 0, "minzoom": 8 }, "geometry": { "type": "Point", "coordinates": [ -71.532, -16.418 ] } },
{ "type": "Feature", "properties": { "name": "Bilbao", "caps": 0, "minzoom": 8 }, "geometry": { "type": "Point", "coordinates": [ -2.93, 43.25 ] } },
{ "type": "Feature", "properties": { "name": "Medina", "caps": 0, "minzoom": 8 }, "geometry": { "type": "Point", "coordinates": [ 39.578, 24.502 ] } },
{ "type": "Feature", "properties": { "name": "The Hague", "caps": 0, "minzoom": 8 }, "geometry": { "type": "Point", "coordinates": [ 4.27, 52.08 ] } },
{ "type": "Feature", "properties": { "name": "Doha", "caps": 0, "minzoom": 8 }, "geometry": { "type": "Point", "coordinates": [ 51.533, 25.287 ] } },
{ "type": "Feature", "properties": { "name": "Rostov", "caps": 0, "minzoom": 8 }, "geometry": { "type": "Point", "coordinates": [ 39.711, 47.237 ] } },
{ "type": "Feature", "properties": { "name": "Voronezh", "caps": 0, "minzoom": 8 }, "geometry": { "type": "Point", "coordinates": [ 39.187, 51.665 ] } },
{ "type": "Feature", "properties": { "name": "Chelyabinsk", "caps": 0, "minzoom": 8 }, "geometry": { "type": "Point", "coordinates": [ 61.437, 55.157 ] } },
{ "type": "Feature", "properties": { "name": "Saratov", "caps": 0, "minzoom": 8 }, "geometry": { "type": "Point", "coordinates": [ 46.028, 51.582 ] } },
{ "type": "Feature", "properties": { "name": "Omsk", "caps": 0, "minzoom": 8 }, "geometry": { "type": "Point", "coordinates": [ 73.398, 54.992 ] } },
{ "type": "Feature", "properties": { "name": "Daejeon", "caps": 0, "minzoom": 8 }, "geometry": { "type": "Point", "coordinates": [ 127.423, 36.337 ] } },
{ "type": "Feature", "properties": { "name": "Gwangju", "caps": 0, "minzoom": 8 }, "geometry": { "type": "Point", "coordinates": [ 126.908, 35.173 ] } },
{ "type": "Feature", "properties": { "name": "General Santos", "caps": 0, "minzoom": 8 }, "geometry": { "type": "Point", "coordinates": [ 125.175, 6.111 ] } },
{ "type": "Feature", "properties": { "name": "Mexicali", "caps": 0, "minzoom": 8 }, "geometry": { "type": "Point", "coordinates": [ -115.482, 32.652 ] } },
{ "type": "Feature", "properties": { "name": "Torreón", "caps": 0, "minzoom": 8 }, "geometry": { "type": "Point", "coordinates": [ -103.422, 25.572 ] } },
{ "type": "Feature", "properties": { "name": "Culiacán", "caps": 0, "minzoom": 8 }, "geometry": { "type": "Point", "coordinates": [ -107.382, 24.832 ] } },
{ "type": "Feature", "properties": { "name": "San Luis Potosí", "caps": 0, "minzoom": 8 }, "geometry": { "type": "Point", "coordinates": [ -101.002, 22.172 ] } },
{ "type": "Feature", "properties": { "name": "León", "caps": 0, "minzoom": 8 }, "geometry": { "type": "Point", "coordinates": [ -101.702, 21.152 ] } },
{ "type": "Feature", "properties": { "name": "Maiduguri", "caps": 0, "minzoom": 8 }, "geometry": { "type": "Point", "coordinates": [ 13.158, 11.852 ] } },
{ "type": "Feature", "properties": { "name": "Port Harcourt", "caps": 0, "minzoom": 8 }, "geometry": { "type": "Point", "coordinates": [ 7.008, 4.812 ] } },
{ "type": "Feature", "properties": { "name": "Ogbomosho", "caps": 0, "minzoom": 8 }, "geometry": { "type": "Point", "coordinates": [ 4.238, 8.132 ] } },
{ "type": "Feature", "properties": { "name": "Warri", "caps": 0, "minzoom": 8 }, "geometry": { "type": "Point", "coordinates": [ 5.76, 5.52 ] } },
{ "type": "Feature", "properties": { "name": "Kaduna", "caps": 0, "minzoom": 8 }, "geometry": { "type": "Point", "coordinates": [ 7.438, 10.522 ] } },
{ "type": "Feature", "properties": { "name": "Tianshui", "caps": 0, "minzoom": 8 }, "geometry": { "type": "Point", "coordinates": [ 105.918, 34.602 ] } },
{ "type": "Feature", "properties": { "name": "Yulin", "caps": 0, "minzoom": 8 }, "geometry": { "type": "Point", "coordinates": [ 110.148, 22.632 ] } },
{ "type": "Feature", "properties": { "name": "Liupanshui", "caps": 0, "minzoom": 8 }, "geometry": { "type": "Point", "coordinates": [ 104.831, 26.596 ] } },
{ "type": "Feature", "properties": { "name": "Quanzhou", "caps": 0, "minzoom": 8 }, "geometry": { "type": "Point", "coordinates": [ 118.578, 24.902 ] } },
{ "type": "Feature", "properties": { "name": "Bandar Lampung", "caps": 0, "minzoom": 8 }, "geometry": { "type": "Point", "coordinates": [ 105.268, -5.428 ] } },
{ "type": "Feature", "properties": { "name": "Malang", "caps": 0, "minzoom": 8 }, "geometry": { "type": "Point", "coordinates": [ 112.608, -7.978 ] } },
{ "type": "Feature", "properties": { "name": "Djibouti", "caps": 0, "minzoom": 8 }, "geometry": { "type": "Point", "coordinates": [ 43.148, 11.595 ] } },
{ "type": "Feature", "properties": { "name": "Shache", "caps": 0, "minzoom": 8 }, "geometry": { "type": "Point", "coordinates": [ 77.25, 38.426 ] } },
{ "type": "Feature", "properties": { "name": "Ankang", "caps": 0, "minzoom": 8 }, "geometry": { "type": "Point", "coordinates": [ 109.02, 32.68 ] } },
{ "type": "Feature", "properties": { "name": "Yueyang", "caps": 0, "minzoom": 8 }, "geometry": { "type": "Point", "coordinates": [ 113.098, 29.382 ] } },
{ "type": "Feature", "properties": { "name": "Hengyang", "caps": 0, "minzoom": 8 }, "geometry": { "type": "Point", "coordinates": [ 112.588, 26.882 ] } },
{ "type": "Feature", "properties": { "name": "Mianyang", "caps": 0, "minzoom": 8 }, "geometry": { "type": "Point", "coordinates": [ 104.69, 31.465 ] } },
{ "type": "Feature", "properties": { "name": "Baoshan", "caps": 0, "minzoom": 8 }, "geometry": { "type": "Point", "coordinates": [ 99.15, 25.12 ] } },
{ "type": "Feature", "properties": { "name": "Huaiyin", "caps": 0, "minzoom": 8 }, "geometry": { "type": "Point", "coordinates": [ 119.066, 33.585 ] } },
{ "type": "Feature", "properties": { "name": "Naha", "caps": 0, "minzoom": 8 }, "geometry": { "type": "Point", "coordinates": [ 127.673, 26.207 ] } },
{ "type": "Feature", "properties": { "name": "Tongliao", "caps": 0, "minzoom": 8 }, "geometry": { "type": "Point", "coordinates": [ 122.268, 43.622 ] } },
{ "type": "Feature", "properties": { "name": "Chifeng", "caps": 0, "minzoom": 8 }, "geometry": { "type": "Point", "coordinates": [ 118.948, 42.272 ] } },
{ "type": "Feature", "properties": { "name": "Jiamusi", "caps": 0, "minzoom": 8 }, "geometry": { "type": "Point", "coordinates": [ 130.348, 46.832 ] } },
{ "type": "Feature", "properties": { "name": "Jixi", "caps": 0, "minzoom": 8 }, "geometry": { "type": "Point", "coordinates": [ 130.968, 45.302 ] } },
{ "type": "Feature", "properties": { "name": "Mbuji-Mayi", "caps": 0, "minzoom": 8 }, "geometry": { "type": "Point", "coordinates": [ 23.598, -6.148 ] } },
{ "type": "Feature", "properties": { "name": "Faridabad", "caps": 0, "minzoom": 8 }, "geometry": { "type": "Point", "coordinates": [ 77.315, 28.435 ] } },
{ "type": "Feature", "properties": { "name": "Srinagar", "caps": 0, "minzoom": 8 }, "geometry": { "type": "Point", "coordinates": [ 74.828, 34.069 ] } },
{ "type": "Feature", "properties": { "name": "Vijayawada", "caps": 0, "minzoom": 8 }, "geometry": { "type": "Point", "coordinates": [ 80.628, 16.522 ] } },
{ "type": "Feature", "properties": { "name": "Thiruvananthapuram", "caps": 0, "minzoom": 8 }, "geometry": { "type": "Point", "coordinates": [ 76.925, 8.516 ] } },
{ "type": "Feature", "properties": { "name": "Hubballi", "caps": 0, "minzoom": 8 }, "geometry": { "type": "Point", "coordinates": [ 75.123, 15.362 ] } },
{ "type": "Feature", "properties": { "name": "Mysuru", "caps": 0, "minzoom": 8 }, "geometry": { "type": "Point", "coordinates": [ 76.658, 12.312 ] } },
{ "type": "Feature", "properties": { "name": "Guwahati", "caps": 0, "minzoom": 8 }, "geometry": { "type": "Point", "coordinates": [ 91.768, 26.162 ] } },
{ "type": "Feature", "properties": { "name": "Bordeaux", "caps": 0, "minzoom": 8 }, "geometry": { "type": "Point", "coordinates": [ -0.597, 44.852 ] } },
{ "type": "Feature", "properties": { "name": "Marseille", "caps": 0, "minzoom": 8 }, "geometry": { "type": "Point", "coordinates": [ 5.373, 43.292 ] } },
{ "type": "Feature", "properties": { "name": "Mosul", "caps": 0, "minzoom": 8 }, "geometry": { "type": "Point", "coordinates": [ 43.143, 36.347 ] } },
{ "type": "Feature", "properties": { "name": "Ahvaz", "caps": 0, "minzoom": 8 }, "geometry": { "type": "Point", "coordinates": [ 48.718, 31.282 ] } },
{ "type": "Feature", "properties": { "name": "Basra", "caps": 0, "minzoom": 8 }, "geometry": { "type": "Point", "coordinates": [ 47.812, 30.515 ] } },
{ "type": "Feature", "properties": { "name": "Tabriz", "caps": 0, "minzoom": 8 }, "geometry": { "type": "Point", "coordinates": [ 46.299, 38.088 ] } },
{ "type": "Feature", "properties": { "name": "Kota", "caps": 0, "minzoom": 8 }, "geometry": { "type": "Point", "coordinates": [ 75.833, 25.182 ] } },
{ "type": "Feature", "properties": { "name": "Jodhpur", "caps": 0, "minzoom": 8 }, "geometry": { "type": "Point", "coordinates": [ 73.015, 26.294 ] } },
{ "type": "Feature", "properties": { "name": "Ranchi", "caps": 0, "minzoom": 8 }, "geometry": { "type": "Point", "coordinates": [ 85.328, 23.372 ] } },
{ "type": "Feature", "properties": { "name": "Raipur", "caps": 0, "minzoom": 8 }, "geometry": { "type": "Point", "coordinates": [ 81.633, 21.237 ] } },
{ "type": "Feature", "properties": { "name": "Jabalpur", "caps": 0, "minzoom": 8 }, "geometry": { "type": "Point", "coordinates": [ 79.953, 23.177 ] } },
{ "type": "Feature", "properties": { "name": "Salem", "caps": 0, "minzoom": 8 }, "geometry": { "type": "Point", "coordinates": [ 78.178, 11.672 ] } },
{ "type": "Feature", "properties": { "name": "Tiruchirappalli", "caps": 0, "minzoom": 8 }, "geometry": { "type": "Point", "coordinates": [ 78.688, 10.801 ] } },
{ "type": "Feature", "properties": { "name": "São Luís", "caps": 0, "minzoom": 8 }, "geometry": { "type": "Point", "coordinates": [ -44.268, -2.514 ] } },
{ "type": "Feature", "properties": { "name": "Cuiabá", "caps": 0, "minzoom": 8 }, "geometry": { "type": "Point", "coordinates": [ -56.087, -15.568 ] } },
{ "type": "Feature", "properties": { "name": "Teresina", "caps": 0, "minzoom": 8 }, "geometry": { "type": "Point", "coordinates": [ -42.782, -5.093 ] } },
{ "type": "Feature", "properties": { "name": "Maceió", "caps": 0, "minzoom": 8 }, "geometry": { "type": "Point", "coordinates": [ -35.732, -9.618 ] } },
{ "type": "Feature", "properties": { "name": "Vila Velha", "caps": 0, "minzoom": 8 }, "geometry": { "type": "Point", "coordinates": [ -40.29, -20.338 ] } },
{ "type": "Feature", "properties": { "name": "Natal", "caps": 0, "minzoom": 8 }, "geometry": { "type": "Point", "coordinates": [ -35.242, -5.778 ] } },
{ "type": "Feature", "properties": { "name": "Tucumán", "caps": 0, "minzoom": 8 }, "geometry": { "type": "Point", "coordinates": [ -65.219, -26.814 ] } },
{ "type": "Feature", "properties": { "name": "Rosario", "caps": 0, "minzoom": 8 }, "geometry": { "type": "Point", "coordinates": [ -60.668, -32.949 ] } },
{ "type": "Feature", "properties": { "name": "Rajshahi", "caps": 0, "minzoom": 8 }, "geometry": { "type": "Point", "coordinates": [ 88.603, 24.377 ] } },
{ "type": "Feature", "properties": { "name": "Mandalay", "caps": 0, "minzoom": 8 }, "geometry": { "type": "Point", "coordinates": [ 96.083, 21.972 ] } }
]
}
